{
    "links": {
        "self": "http://www.neowsapp.com/rest/v1/neo/3408590?api_key=iIulBulltgU6a56xZRHN4H3l9WmuAYTsLGpBGhQ2"
    },
    "id": "3408590",
    "neo_reference_id": "3408590",
    "name": "(2008 GY3)",
    "designation": "2008 GY3",
    "nasa_jpl_url": "http://ssd.jpl.nasa.gov/sbdb.cgi?sstr=3408590",
    "absolute_magnitude_h": 20.7,
    "estimated_diameter": {
        "kilometers": {
            "estimated_diameter_min": 0.1925550782,
            "estimated_diameter_max": 0.4305662442
        },
        "meters": {
            "estimated_diameter_min": 192.5550781879,
            "estimated_diameter_max": 430.566244241
        },
        "miles": {
            "estimated_diameter_min": 0.1196481415,
            "estimated_diameter_max": 0.2675413778
        },
        "feet": {
            "estimated_diameter_min": 631.7424027221,
            "estimated_diameter_max": 1412.6189567557
        }
    },
    "is_potentially_hazardous_asteroid": false,
    "close_approach_data": [
        {
            "close_approach_date": "1998-03-18",
            "close_approach_date_full": "1998-Mar-18 02:57",
            "epoch_date_close_approach": 890189820000,
            "relative_velocity": {
                "kilometers_per_second": "7.2618149394",
                "kilometers_per_hour": "26142.5337819547",
                "miles_per_hour": "16243.9538380151"
            },
            "miss_distance": {
                "astronomical": "1.9728647529",
                "lunar": "767.4443888781",
                "kilometers": "295136364.831916323",
                "miles": "183389233.2348103374"
            },
            "orbiting_body": "Juptr"
        },
        {
            "close_approach_date": "2008-03-21",
            "close_approach_date_full": "2008-Mar-21 01:35",
            "epoch_date_close_approach": 1206063300000,
            "relative_velocity": {
                "kilometers_per_second": "10.3943191006",
                "kilometers_per_hour": "37419.5487620016",
                "miles_per_hour": "23251.0523960337"
            },
            "miss_distance": {
                "astronomical": "0.3366897084",
                "lunar": "130.9722965676",
                "kilometers": "50368063.227561108",
                "miles": "31297263.2162269704"
            },
            "orbiting_body": "Earth"
        },
        {
            "close_approach_date": "2010-07-07",
            "close_approach_date_full": "2010-Jul-07 04:12",
            "epoch_date_close_approach": 1278475920000,
            "relative_velocity": {
                "kilometers_per_second": "5.0148362229",
                "kilometers_per_hour": "18053.4104024576",
                "miles_per_hour": "11217.6871470159"
            },
            "miss_distance": {
                "astronomical": "1.214844636",
                "lunar": "472.574563404",
                "kilometers": "181738169.92652532",
                "miles": "112926862.304156616"
            },
            "orbiting_body": "Juptr"
        }
    ],
    "orbital_data": {
        "orbit_id": "10",
        "orbit_determination_date": "2017-04-06 09:03:44",
        "first_observation_date": "2008-04-08",
        "last_observation_date": "2008-05-06",
        "data_arc_in_days": 28,
        "observations_used": 33,
        "orbit_uncertainty": "7",
        "minimum_orbit_intersection": ".275971",
        "jupiter_tisserand_invariant": "3.183",
        "epoch_osculation": "2459000.5",
        "eccentricity": ".5129451861640756",
        "semi_major_axis": "2.561388807222379",
        "inclination": "16.99247390232939",
        "ascending_node_longitude": "15.67392062101337",
        "orbital_period": "1497.309872051625",
        "perihelion_distance": "1.247536748663116",
        "perihelion_argument": "151.4680667094165",
        "aphelion_distance": "3.875240865781641",
        "perihelion_time": "2459046.587374591511",
        "mean_anomaly": "348.9191575086523",
        "mean_motion": ".240431193782704",
        "equinox": "J2000",
        "orbit_class": {
            "orbit_class_type": "AMO",
            "orbit_class_description": "Near-Earth asteroid orbits similar to that of 1221 Amor",
            "orbit_class_range": "1.017 AU < q (perihelion) < 1.3 AU"
        }
    },
    "is_sentry_object": false
}